OBJECT_NAME,OBJECT_ID,EPOCH,MEAN_MOTION,ECCENTRICITY,INCLINATION,RA_OF_ASC_NODE,ARG_OF_PERICENTER,MEAN_ANOMALY,EPHEMERIS_TYPE,CLASSIFICATION_TYPE,NORAD_CAT_ID,ELEMENT_SET_NO,REV_AT_EPOCH,BSTAR,MEAN_MOTION_DOT,MEAN_MOTION_DDOT
EYESAT A (AO-27),1993-061C,2026-07-05T04:19:15.786912,14.30947410,.0009241,98.6873,253.5864,53.0213,307.1814,0,U,22825,999,70957,.74236E-4,.151E-5,0
ITAMSAT (IO-26),1993-061D,2026-07-05T03:41:53.059776,14.31374787,.0009522,98.6820,253.4798,37.5027,322.6818,0,U,22826,999,70988,.75456E-4,.155E-5,0
RADIO ROSTO (RS15),1994-085A,2026-07-05T07:08:01.942080,11.27583527,.01565547,64.8175,273.9281,0.5292,359.5771,0,U,23439,999,29794,.32444343E-3,-.31E-6,0
JAS-2 (FO-29),1996-046B,2026-07-05T11:58:09.489216,13.53274998,.03507105,98.5225,32.8610,49.0522,314.0418,0,U,24278,999,47564,.10395126E-4,-.23E-6,0
FORTE,1997-047A,2026-07-04T16:15:06.454656,14.27952788,.00245679,69.9545,334.5145,256.2124,103.6264,0,U,24920,999,50118,.1301928E-3,.266E-5,0
TECHSAT 1B (GO-32),1998-043D,2026-07-05T11:13:58.135008,14.24432096,.00018827,99.0076,179.6883,130.3325,229.8018,0,U,25397,999,45393,.55820262E-4,.82E-6,0
ISS (ZARYA),1998-067A,2026-07-05T10:39:01.361664,15.48905966,.00067279,51.6303,209.7275,258.7638,101.2595,0,U,25544,999,57458,.17012518E-3,.8907E-4,0
IMAGE,2000-017A,2026-06-30T21:52:49.688544,1.68666270,.7422471,94.2398,315.5527,286.2504,9.4555,0,U,26113,999,16173,0,-.33E-6,0
CLUSTER II-FM7 (SAMBA),2000-041A,2026-07-07T05:13:52.745376,0.44837774,.9079263,149.8716,54.4790,271.8893,359.5006,0,U,26410,999,2039,0,.7566E-4,0
CLUSTER II-FM8 (TANGO),2000-045B,2026-07-03T04:43:24.836736,0.44420887,.9078555,150.1065,54.7656,272.0035,2.3073,0,U,26464,999,2038,0,.12165E-3,0
ODIN,2001-007A,2026-07-05T02:09:07.075872,15.83958831,.00052294,97.3754,228.2704,135.2635,224.9058,0,U,26702,999,39222,.19065116E-2,.444533E-2,0
OMNI-M1,2001-026A,2026-07-02T00:09:17.717184,3.92402003,.00137998,44.8270,241.8483,56.1769,304.0224,0,U,26857,999,20615,0,.7E-7,0
PCSAT (NO-44),2001-043C,2026-07-05T11:00:37.575936,14.31962526,.00060015,67.0487,197.0128,265.8664,94.1752,0,U,26931,999,29306,.90678968E-4,.16E-5,0
PROBA-1,2001-049B,2026-07-05T14:08:00.326688,15.07581456,.00562196,97.9593,195.7646,61.4068,299.2799,0,U,26958,999,34639,.27901646E-3,.4329E-4,0
SAUDISAT 1C (SO-50),2002-058C,2026-07-05T07:03:53.749440,14.83086679,.00748049,64.5520,72.9616,259.0885,100.1798,0,U,27607,999,26714,.16659148E-3,.1271E-4,0
CORIOLIS,2003-001A,2026-07-05T10:44:33.113472,14.19950027,.00144661,98.7128,193.0537,155.9156,204.2700,0,U,27640,999,21681,.80692197E-4,.128E-5,0
CUTE-1 (CO-55),2003-031E,2026-07-05T00:29:40.227936,14.24347366,.0010529,98.6737,194.3551,129.0136,231.1982,0,U,27844,999,19421,.18869E-3,.393E-5,0
CUBESAT XI-IV (CO-57),2003-031J,2026-07-04T22:44:44.423232,14.23630898,.0010103,98.6769,193.9817,146.4963,213.6856,0,U,27848,999,19390,.16664E-3,.336E-5,0
MOZHAETS 4 (RS22),2003-042A,2026-07-05T14:52:55.084800,14.73501686,.00104926,98.3472,11.4996,204.5697,243.9808,0,U,27939,999,21826,.18648425E-3,.1158E-4,0
